HERMES-3                
1 63835U 25052BR  26068.93751242  .00020316  00000+0  69958-3 0  9995
2 63835  97.3987 324.6131 0007993 112.9583 247.2502 15.30039785 54863
STARLINK-35726          
1 66280U 25247R   26068.65994543  .00027990  00000+0  95388-3 0  9991
2 66280  53.1602 191.2591 0001242  63.1435 296.9692 15.30190344 21039
