[{"OBJECT_NAME":"HERMES-3","OBJECT_ID":"2025-052BR","EPOCH":"2026-03-09T22:30:01.073952","MEAN_MOTION":15.30039786,"ECCENTRICITY":0.00079928,"INCLINATION":97.3987,"RA_OF_ASC_NODE":324.6131,"ARG_OF_PERICENTER":112.9583,"MEAN_ANOMALY":247.2502,"EPHEMERIS_TYPE":0,"CLASSIFICATION_TYPE":"U","NORAD_CAT_ID":63835,"ELEMENT_SET_NO":999,"REV_AT_EPOCH":5486,"BSTAR":0.0006995793,"MEAN_MOTION_DOT":0.00020316,"MEAN_MOTION_DDOT":0},{"OBJECT_NAME":"STARLINK-35726","OBJECT_ID":"2025-247R","EPOCH":"2026-03-09T15:50:19.285152","MEAN_MOTION":15.30190344,"ECCENTRICITY":0.00012421,"INCLINATION":53.1602,"RA_OF_ASC_NODE":191.2591,"ARG_OF_PERICENTER":63.1435,"MEAN_ANOMALY":296.9692,"EPHEMERIS_TYPE":0,"CLASSIFICATION_TYPE":"U","NORAD_CAT_ID":66280,"ELEMENT_SET_NO":999,"REV_AT_EPOCH":2103,"BSTAR":0.0009538783,"MEAN_MOTION_DOT":0.0002799,"MEAN_MOTION_DDOT":0}]
